XRISM                   
1 57800U 23137A   24053.60711004  .00005182  00000+0  40348-3 0  9996
2 57800  31.0048  27.4542 0009936 146.2741 213.8528 14.99695884 25238
